H1 CPF 01  gfz 2022 06 16 00  6671 terrasarx 
H2 0702601  6201 31698    2022 06 16 00 59 42 2022 06 21 00 00 42   120 1 1  0 0 0
H9
10 0 59750  38862.000000  0   -1796330.972   2911584.608  -5986164.288
10 0 59750  38982.000000  0   -1946373.464   3676059.554  -5498488.539
10 0 59750  39102.000000  0   -2049786.464   4378936.663  -4914680.563
10 0 59750  39222.000000  0   -2105931.488   5007114.804  -4244860.991
10 0 59750  39342.000000  0   -2115205.327   5548761.314  -3500673.396
10 0 59750  39462.000000  0   -2079013.038   5993542.494  -2695089.691
10 0 59750  39582.000000  0   -1999719.428   6332831.042  -1842190.031
10 0 59750  39702.000000  0   -1880580.519   6559884.687   -956917.798
10 0 59750  39822.000000  0   -1725655.453   6669989.444    -54816.255
10 0 59750  39942.000000  0   -1539700.913   6660567.095    848248.728
10 0 59750  40062.000000  0   -1328050.391   6531239.870   1736378.611
10 0 59750  40182.000000  0   -1096480.648   6283846.227   2593932.745
10 0 59750  40302.000000  0    -851069.921   5922412.683   3405811.033
10 0 59750  40422.000000  0    -598051.884   5453083.637   4157725.221
10 0 59750  40542.000000  0    -343669.087   4884010.478   4836455.645
10 0 59750  40662.000000  0     -94027.372   4225197.261   5430085.902
10 0 59750  40782.000000  0     145043.206   3488315.669   5928207.068
10 0 59750  40902.000000  0     368117.335   2686490.420   6322097.464
10 0 59750  41022.000000  0     570291.925   1834058.207   6604869.071
10 0 59750  41142.000000  0     747289.603    946307.158   6771582.166
10 0 59750  41262.000000  0     895546.127     39200.410   6819325.614
10 0 59750  41382.000000  0    1012280.565   -870909.675   6747264.650
10 0 59750  41502.000000  0    1095547.013  -1767575.961   6556655.661
10 0 59750  41622.000000  0    1144267.145  -2634553.349   6250826.022
10 0 59750  41742.000000  0    1158243.053  -3456094.454   5835119.983
10 0 59750  41862.000000  0    1138149.336  -4217238.032   5316808.997
10 0 59750  41982.000000  0    1085506.732  -4904083.892   4704969.985
10 0 59750  42102.000000  0    1002636.663  -5504052.940   4010333.513
10 0 59750  42222.000000  0     892597.189  -6006127.706   3245099.970
10 0 59750  42342.000000  0     759101.866  -6401064.788   2422725.938
10 0 59750  42462.000000  0     606422.242  -6681574.449   1557686.179
10 0 59750  42582.000000  0     439277.151  -6842463.683    665215.336
10 0 59750  42702.000000  0     262711.400  -6880740.540   -238967.505
10 0 59750  42822.000000  0      81965.885  -6795671.687  -1138946.609
10 0 59750  42942.000000  0     -97655.501  -6588792.508  -2018899.021
10 0 59750  43062.000000  0    -270919.258  -6263872.744  -2863379.442
10 0 59750  43182.000000  0    -432793.027  -5826838.960  -3657596.383
10 0 59750  43302.000000  0    -578570.652  -5285654.694  -4387673.933
10 0 59750  43422.000000  0    -703988.025  -4650161.663  -5040892.153
10 0 59750  43542.000000  0    -805327.213  -3931888.876  -5605902.498
10 0 59750  43662.000000  0    -879506.590  -3143833.633  -6072916.314
10 0 59750  43782.000000  0    -924155.247  -2300219.459  -6433863.925
10 0 59750  43902.000000  0    -937670.696  -1416235.945  -6682522.484
10 0 59750  44022.000000  0    -919259.202   -507766.348  -6814612.578
10 0 59750  44142.000000  0    -868957.993    408894.004  -6827864.064
10 0 59750  44262.000000  0    -787638.528   1317323.300  -6722049.632
10 0 59750  44382.000000  0    -676991.790   2201259.689  -6498988.235
10 0 59750  44502.000000  0    -539495.688   3044885.048  -6162517.682
10 0 59750  44622.000000  0    -378364.136   3833104.081  -5718437.075
10 0 59750  44742.000000  0    -197478.610   4551813.554  -5174416.452
10 0 59750  44862.000000  0      -1303.749   5188156.801  -4539875.907
10 0 59750  44982.000000  0     205211.733   5730760.797  -3825833.487
10 0 59750  45102.000000  0     416747.535   6169949.118  -3044722.609
10 0 59750  45222.000000  0     627735.288   6497926.111  -2210182.100
10 0 59750  45342.000000  0     832490.614   6708928.425  -1336820.966
10 0 59750  45462.000000  0    1025350.650   6799338.521   -439961.296
10 0 59750  45582.000000  0    1200813.726   6767756.589    464635.472
10 0 59750  45702.000000  0    1353677.404   6615027.371   1361053.111
10 0 59750  45822.000000  0    1479170.321   6344222.130   2233508.423
10 0 59750  45942.000000  0    1573075.353   5960577.120   3066637.166
10 0 59750  46062.000000  0    1631841.477   5471389.168   3845772.263
10 0 59750  46182.000000  0    1652680.534   4885869.466   4557208.272
10 0 59750  46302.000000  0    1633647.817   4214960.499   5188446.422
10 0 59750  46422.000000  0    1573701.535   3471119.224   5728413.147
10 0 59750  46542.000000  0    1472743.435   2668078.214   6167648.695
10 0 59750  46662.000000  0    1331638.661   1820585.936   6498468.589
10 0 59750  46782.000000  0    1152214.549    944130.622   6715092.335
10 0 59750  46902.000000  0     937238.525     54654.625   6813737.393
10 0 59750  47022.000000  0     690375.687   -831734.126   6792681.197
10 0 59750  47142.000000  0     416126.160  -1699053.711   6652290.889
10 0 59750  47262.000000  0     119742.969  -2531736.236   6395017.313
10 0 59750  47382.000000  0    -192868.131  -3314908.385   6025354.741
10 0 59750  47502.000000  0    -515264.009  -4034658.163   5549764.477
10 0 59750  47622.000000  0    -840593.150  -4678283.163   4976568.025
10 0 59750  47742.000000  0   -1161737.563  -5234521.022   4315810.629
10 0 59750  47862.000000  0   -1471465.530  -5693757.022   3579090.524
10 0 59750  47982.000000  0   -1762590.174  -6048200.044   2779356.550
10 0 59750  48102.000000  0   -2028131.271  -6292023.537   1930680.412
10 0 59750  48222.000000  0   -2261476.665  -6421469.156   1048005.675
10 0 59750  48342.000000  0   -2456537.432  -6434909.026    146878.004
10 0 59750  48462.000000  0   -2607893.727  -6332865.465   -756836.800
10 0 59750  48582.000000  0   -2710927.748  -6117987.154  -1647240.997
10 0 59750  48702.000000  0   -2761940.712  -5794982.475  -2508692.895
10 0 59750  48822.000000  0   -2758250.710  -5370512.004  -3326088.618
10 0 59750  48942.000000  0   -2698268.510  -4853042.447  -4085131.107
10 0 59750  49062.000000  0   -2581549.820  -4252667.258  -4772579.533
10 0 59750  49182.000000  0   -2408823.821  -3580900.238  -5376475.463
10 0 59750  49302.000000  0   -2181998.142  -2850447.070  -5886343.292
10 0 59750  49422.000000  0   -1904140.054  -2074959.436  -6293362.667
10 0 59750  49542.000000  0   -1579433.659  -1268776.694  -6590510.109
10 0 59750  49662.000000  0   -1213115.638   -446661.091  -6772668.360
10 0 59750  49782.000000  0    -811391.268    376468.786  -6836704.347
10 0 59750  49902.000000  0    -381330.515   1185802.140  -6781516.941
10 0 59750  50022.000000  0      69253.577   1966895.516  -6608053.494
10 0 59750  50142.000000  0     531941.911   2705923.896  -6319296.480
10 0 59750  50262.000000  0     997863.265   3389922.154  -5920219.432
10 0 59750  50382.000000  0    1457860.369   4007011.273  -5417709.008
10 0 59750  50502.000000  0    1902665.761   4546605.780  -4820457.285
10 0 59750  50622.000000  0    2323085.874   4999601.030  -4138823.229
10 0 59750  50742.000000  0    2710188.940   5358534.937  -3384662.298
10 0 59750  50862.000000  0    3055493.121   5617720.314  -2571128.326
10 0 59750  50982.000000  0    3351151.604   5773345.355  -1712448.529
10 0 59750  51102.000000  0    3590129.268   5823538.170   -823675.086
10 0 59750  51222.000000  0    3766365.811   5768393.291     79582.426
10 0 59750  51342.000000  0    3874921.150   5609958.534    981437.549
10 0 59750  51462.000000  0    3912099.704   5352181.828   1866014.034
10 0 59750  51582.000000  0    3875550.248   5000820.732   2717732.833
10 0 59750  51702.000000  0    3764338.412   4563316.543   3521596.488
10 0 59750  51822.000000  0    3578988.465   4048631.765   4263458.992
10 0 59750  51942.000000  0    3321497.748   3467062.702   4930278.100
10 0 59750  52062.000000  0    2995316.821   2830027.613   5510347.929
10 0 59750  52182.000000  0    2605300.925   2149834.981   5993500.249
10 0 59750  52302.000000  0    2157636.405   1439441.273   6371277.518
10 0 59750  52422.000000  0    1659739.262    712200.102   6637075.484
10 0 59750  52542.000000  0    1120129.201    -18389.797   6786251.591
10 0 59750  52662.000000  0     548282.499   -738933.746   6816201.831
10 0 59750  52782.000000  0     -45534.812  -1436387.110   6726404.240
10 0 59750  52902.000000  0    -650451.441  -2098291.214   6518426.937
10 0 59750  53022.000000  0   -1255189.580  -2712996.023   6195901.385
10 0 59750  53142.000000  0   -1848272.838  -3269865.185   5764461.676
10 0 59750  53262.000000  0   -2418242.292  -3759462.102   5231653.431
10 0 59750  53382.000000  0   -2953879.890  -4173714.873   4606809.768
10 0 59750  53502.000000  0   -3444433.387  -4506055.309   3900892.849
10 0 59750  53622.000000  0   -3879835.481  -4751528.363   3126303.953
10 0 59750  53742.000000  0   -4250912.627  -4906870.475   2296666.499
10 0 59750  53862.000000  0   -4549580.845  -4970555.243   1426584.868
10 0 59750  53982.000000  0   -4769022.810  -4942803.458    531382.173
10 0 59750  54102.000000  0   -4903841.222  -4825557.551   -373176.633
10 0 59750  54222.000000  0   -4950184.890  -4622421.134  -1271171.187
10 0 59750  54342.000000  0   -4905843.219  -4338564.428  -2146815.770
10 0 59750  54462.000000  0   -4770306.297  -3980597.587  -2984744.985
10 0 59750  54582.000000  0   -4544790.064  -3556416.781  -3770287.715
10 0 59750  54702.000000  0   -4232227.298  -3075028.189  -4489724.888
10 0 59750  54822.000000  0   -3837224.891  -2546353.677  -5130526.757
10 0 59750  54942.000000  0   -3365988.719  -1981023.223  -5681564.907
10 0 59750  55062.000000  0   -2826219.196  -1390159.411  -6133296.459
10 0 59750  55182.000000  0   -2226979.818   -785158.107  -6477918.909
10 0 59750  55302.000000  0   -1578540.606   -177470.061  -6709493.393
99
